NORAD_CAT_ID,OBJECT_NAME,OBJECT_TYPE,EPOCH,MEAN_MOTION,ECCENTRICITY,INCLINATION,RA_OF_ASC_NODE,ARG_OF_PERICENTER,MEAN_ANOMALY,BSTAR,MEAN_MOTION_DOT,MEAN_MOTION_DDOT,TLE_LINE0,TLE_LINE1,TLE_LINE2,SEMIMAJOR_AXIS,PERIOD,APOGEE,PERIGEE,DECAYED
52549.0,STARLINK-3935,PAYLOAD,2023-06-12 15:46:04,15.08840747,0.0001057,53.2183,302.9273,85.2621,274.8492,0.00016392,2.322e-05,0.0,0 STARLINK-3935,1 52549U 22051S   23163.65700152  .00002322  00000-0  16392-3 0  9999,2 52549  53.2183 302.9273 0001057  85.2621 274.8492 15.08840747 60323,6917.878,95.438,540.474,539.012,0.0
52549.0,STARLINK-3935,PAYLOAD,2023-06-13 02:53:46,15.08847425,0.0001052,53.2183,300.8455,87.0881,273.0232,1.4796e-05,-5.2e-07,0.0,0 STARLINK-3935,1 52549U 22051S   23164.12067793 -.00000052  00000-0  14796-4 0  9995,2 52549  53.2183 300.8455 0001052  87.0881 273.0232 15.08847425 60463,6917.858,95.437,540.45,538.995,0.0
52549.0,STARLINK-3935,PAYLOAD,2023-06-13 15:36:52,15.08838532,0.0001145,53.2186,298.4673,89.5224,270.5899,-3.824e-06,-3.49e-06,0.0,0 STARLINK-3935,1 52549U 22051S   23164.65060544 -.00000349  00000-0 -38240-5 0  9991,2 52549  53.2186 298.4673 0001145  89.5224 270.5899 15.08838532 60540,6917.885,95.438,540.542,538.958,0.0
52549.0,STARLINK-3935,PAYLOAD,2023-06-14 18:38:26,15.08808452,0.0001342,53.2197,293.4149,94.9597,265.1549,0.0004309,6.571e-05,0.0,0 STARLINK-3935,1 52549U 22051S   23165.77669258  .00006571  00000-0  43090-3 0  9990,2 52549  53.2197 293.4149 0001342  94.9597 265.1549 15.08808452 60648,6917.977,95.44,540.77,538.913,0.0
52549.0,STARLINK-3935,PAYLOAD,2023-06-15 00:59:58,15.0884022,0.0001269,53.2197,292.225,87.7709,272.3429,-2.3662e-05,-6.64e-06,0.0,0 STARLINK-3935,1 52549U 22051S   23166.04164619 -.00000664  00000-0 -23662-4 0  9995,2 52549  53.2197 292.2250 0001269  87.7709 272.3429 15.08840220 60759,6917.88,95.438,540.623,538.867,0.0
52549.0,STARLINK-3935,PAYLOAD,2023-06-15 13:43:03,15.08835543,0.0001143,53.2187,289.8468,97.3165,262.7957,5.4543e-05,5.8e-06,0.0,0 STARLINK-3935,1 52549U 22051S   23166.57156852  .00000580  00000-0  54543-4 0  9990,2 52549  53.2187 289.8468 0001143  97.3165 262.7957 15.08835543 60767,6917.894,95.438,540.55,538.968,0.0
52549.0,STARLINK-3935,PAYLOAD,2023-06-15 15:18:26,15.08837474,0.0001152,53.2186,289.55,102.7976,257.3145,6.215e-05,7.01e-06,0.0,0 STARLINK-3935,1 52549U 22051S   23166.63780703  .00000701  00000-0  62150-4 0  9993,2 52549  53.2186 289.5500 0001152 102.7976 257.3145 15.08837474 60776,6917.888,95.438,540.55,538.956,0.0
52549.0,STARLINK-3935,PAYLOAD,2023-06-16 07:12:17,15.08843619,0.0001177,53.2188,286.5745,100.7592,259.3533,0.00011599,1.559e-05,0.0,0 STARLINK-3935,1 52549U 22051S   23167.30020260  .00001559  00000-0  11599-3 0  9995,2 52549  53.2188 286.5745 0001177 100.7592 259.3533 15.08843619 60945,6917.869,95.437,540.549,538.92,0.0
52549.0,STARLINK-3935,PAYLOAD,2023-06-16 11:58:26,15.08858863,0.000104,53.2178,285.6829,98.9222,261.1887,7.1388e-05,8.49e-06,0.0,0 STARLINK-3935,1 52549U 22051S   23167.49891560  .00000849  00000-0  71388-4 0  9998,2 52549  53.2178 285.6829 0001040  98.9222 261.1887 15.08858863 60900,6917.823,95.436,540.407,538.968,0.0
52549.0,STARLINK-3935,PAYLOAD,2023-06-16 15:09:12,15.08853953,9.95e-05,53.2176,285.0901,101.3102,258.8002,0.00023427,3.444e-05,0.0,0 STARLINK-3935,1 52549U 22051S   23167.63139111  .00003444  00000-0  23427-3 0  9995,2 52549  53.2176 285.0901 0000995 101.3102 258.8002 15.08853953 60993,6917.838,95.437,540.391,539.014,0.0
52549.0,STARLINK-3935,PAYLOAD,2023-06-16 16:44:35,15.08858153,0.0001005,53.2172,284.7914,93.3624,266.7483,0.00024353,3.592e-05,0.0,0 STARLINK-3935,1 52549U 22051S   23167.69762881  .00003592  00000-0  24353-3 0  9990,2 52549  53.2172 284.7914 0001005  93.3624 266.7483 15.08858153 60933,6917.825,95.436,540.385,538.995,0.0
52549.0,STARLINK-3935,PAYLOAD,2023-06-17 00:41:32,15.08839633,0.0001273,53.2182,283.3055,76.2746,283.8388,0.00010754,1.424e-05,0.0,0 STARLINK-3935,1 52549U 22051S   23168.02884490  .00001424  00000-0  10754-3 0  9991,2 52549  53.2182 283.3055 0001273  76.2746 283.8388 15.08839633 61057,6917.882,95.438,540.627,538.866,0.0
52549.0,STARLINK-3935,PAYLOAD,2023-06-17 16:35:24,15.08817874,0.0001258,53.2165,280.3308,69.9917,290.121,-0.00026567,-4.511e-05,0.0,0 STARLINK-3935,1 52549U 22051S   23168.69125975 -.00004511  00000-0 -26567-3 0  9991,2 52549  53.2165 280.3308 0001258  69.9917 290.1210 15.08817874 61157,6917.948,95.439,540.683,538.943,0.0
52549.0,STARLINK-3935,PAYLOAD,2023-06-18 00:32:20,15.0882802,9.95e-05,53.2167,278.8441,70.8837,289.2263,-7.4145e-05,-1.467e-05,0.0,0 STARLINK-3935,1 52549U 22051S   23169.02245736 -.00001467  00000-0 -74145-4 0  9990,2 52549  53.2167 278.8441 0000995  70.8837 289.2263 15.08828020 61206,6917.917,95.438,540.47,539.094,0.0
52549.0,STARLINK-3935,PAYLOAD,2023-06-18 13:15:25,15.08834659,0.0001052,53.2162,276.4658,59.2278,300.8818,0.00075079,0.00011679,0.0,0 STARLINK-3935,1 52549U 22051S   23169.55238146  .00011679  00000-0  75079-3 0  9995,2 52549  53.2162 276.4658 0001052  59.2278 300.8818 15.08834659 61212,6917.897,95.438,540.489,539.034,0.0
52549.0,STARLINK-3935,PAYLOAD,2023-06-19 00:23:07,15.08849617,0.0001074,53.216,274.3843,54.8251,305.2842,0.00084503,0.0001319,0.0,0 STARLINK-3935,1 52549U 22051S   23170.01606045  .00013190  00000-0  84503-3 0  9997,2 52549  53.2160 274.3843 0001074  54.8251 305.2842 15.08849617 61350,6917.851,95.437,540.459,538.973,0.0
52549.0,STARLINK-3935,PAYLOAD,2023-06-19 13:06:12,15.08865905,0.000115,53.2159,272.0058,52.6092,307.5004,0.00092566,0.00014485,0.0,0 STARLINK-3935,1 52549U 22051S   23170.54597402  .00014485  00000-0  92566-3 0  9997,2 52549  53.2159 272.0058 0001150  52.6092 307.5004 15.08865905 61369,6917.801,95.436,540.462,538.871,0.0
52549.0,STARLINK-3935,PAYLOAD,2023-06-19 14:41:35,15.08866832,0.0001134,53.2159,271.7084,52.2681,307.8414,0.00089907,0.0001406,0.0,0 STARLINK-3935,1 52549U 22051S   23170.61221294  .00014060  00000-0  89907-3 0  9992,2 52549  53.2159 271.7084 0001134  52.2681 307.8414 15.08866832 61375,6917.798,95.436,540.448,538.879,0.0
52549.0,STARLINK-3935,PAYLOAD,2023-06-20 00:13:53,15.08854011,0.0001332,53.2151,269.9186,93.4356,266.6789,0.00030064,4.502e-05,0.0,0 STARLINK-3935,1 52549U 22051S   23171.00965136  .00004502  00000-0  30064-3 0  9996,2 52549  53.2151 269.9186 0001332  93.4356 266.6789 15.08854011 61503,6917.838,95.437,540.624,538.781,0.0
52549.0,STARLINK-3935,PAYLOAD,2023-06-20 12:56:58,15.08850921,0.0001552,53.2154,267.5449,72.1787,287.9374,0.00025987,3.851e-05,0.0,0 STARLINK-3935,1 52549U 22051S   23171.53957159  .00003851  00000-0  25987-3 0  9994,2 52549  53.2154 267.5449 0001552  72.1787 287.9374 15.08850921 61511,6917.847,95.437,540.786,538.638,0.0
52549.0,STARLINK-3935,PAYLOAD,2023-06-20 14:32:22,15.08846155,0.0001149,53.2159,267.2464,77.6941,282.418,7.0312e-05,8.32e-06,0.0,0 STARLINK-3935,1 52549U 22051S   23171.60581222  .00000832  00000-0  70312-4 0  9995,2 52549  53.2159 267.2464 0001149  77.6941 282.4180 15.08846155 61591,6917.862,95.437,540.521,538.932,0.0
52549.0,STARLINK-3935,PAYLOAD,2023-06-21 12:47:45,15.08850012,0.0001047,53.2164,263.0847,70.0779,290.0326,0.00016936,2.409e-05,0.0,0 STARLINK-3935,1 52549U 22051S   23172.53316907  .00002409  00000-0  16936-3 0  9997,2 52549  53.2164 263.0847 0001047  70.0779 290.0326 15.08850012 61661,6917.85,95.437,540.439,538.99,0.0
52549.0,STARLINK-3935,PAYLOAD,2023-06-22 01:30:51,15.08840353,9.69e-05,53.2147,260.7042,69.0491,291.0605,7.3766e-05,8.86e-06,0.0,0 STARLINK-3935,1 52549U 22051S   23173.06309267  .00000886  00000-0  73766-4 0  9999,2 52549  53.2147 260.7042 0000969  69.0491 291.0605 15.08840353 61819,6917.879,95.438,540.415,539.074,0.0
52549.0,STARLINK-3935,PAYLOAD,2023-06-23 12:29:20,15.08844829,8.76e-05,53.2154,254.1644,72.3613,287.7474,0.00010484,1.381e-05,0.0,0 STARLINK-3935,1 52549U 22051S   23174.52037074  .00001381  00000-0  10484-3 0  9993,2 52549  53.2154 254.1644 0000876  72.3613 287.7474 15.08844829 62035,6917.866,95.437,540.337,539.125,0.0
52549.0,STARLINK-3935,PAYLOAD,2023-06-24 07:33:57,15.08839327,8.67e-05,53.2152,250.5963,71.8869,288.2218,-0.00036337,-6.066e-05,0.0,0 STARLINK-3935,1 52549U 22051S   23175.31525454 -.00006066  00000-0 -36337-3 0  9997,2 52549  53.2152 250.5963 0000867  71.8869 288.2218 15.08839327 62156,6917.882,95.438,540.347,539.148,0.0
52549.0,STARLINK-3935,PAYLOAD,2023-06-25 09:00:08,15.08843732,0.0001134,53.2163,245.838,92.4835,267.6287,0.00014018,1.944e-05,0.0,0 STARLINK-3935,1 52549U 22051S   23176.37509566  .00001944  00000-0  14018-3 0  9990,2 52549  53.2163 245.8380 0001134  92.4835 267.6287 15.08843732 62318,6917.869,95.437,540.518,538.949,0.0
52549.0,STARLINK-3935,PAYLOAD,2023-06-25 21:43:13,15.08835737,0.0001338,53.2165,243.4604,72.9021,287.2118,5.4455e-05,5.79e-06,0.0,0 STARLINK-3935,1 52549U 22051S   23176.90502137  .00000579  00000-0  54455-4 0  9999,2 52549  53.2165 243.4604 0001338  72.9021 287.2118 15.08835737 62394,6917.893,95.438,540.684,538.833,0.0
52549.0,STARLINK-3935,PAYLOAD,2023-06-27 10:17:06,15.08840962,0.0001158,53.2149,236.6192,70.4178,289.6939,0.00016489,2.337e-05,0.0,0 STARLINK-3935,1 52549U 22051S   23178.42854333  .00002337  00000-0  16489-3 0  9994,2 52549  53.2149 236.6192 0001158  70.4178 289.6939 15.08840962 62627,6917.877,95.437,540.544,538.941,0.0
52549.0,STARLINK-3935,PAYLOAD,2023-06-28 14:54:02,15.08847299,0.0001128,53.2156,231.2663,70.1969,289.9145,0.00023044,3.382e-05,0.0,0 STARLINK-3935,1 52549U 22051S   23179.62086096  .00003382  00000-0  23044-3 0  9996,2 52549  53.2156 231.2663 0001128  70.1969 289.9145 15.08847299 62803,6917.858,95.437,540.503,538.943,0.0
52549.0,STARLINK-3935,PAYLOAD,2023-06-29 03:37:07,15.08838359,0.0001168,53.2159,228.8866,77.3682,282.7441,4.7774e-05,4.73e-06,0.0,0 STARLINK-3935,1 52549U 22051S   23180.15078509  .00000473  00000-0  47774-4 0  9991,2 52549  53.2159 228.8866 0001168  77.3682 282.7441 15.08838359 62883,6917.885,95.438,540.558,538.942,0.0
